ION SCV-004             
1 50993U 22002K   26068.68892644  .00006538  00000+0  23198-3 0  9998
2 50993  97.2961 128.2294 0007216   1.6783 358.4480 15.29369331230088
STARLINK-35397          
1 65825U 25221C   26068.43422523  .00016618  00000+0  57239-3 0  9995
2 65825  53.1597  89.5770 0001249  79.9903 280.1239 15.30173529 26040
